TIANMU-1 20             
1 58661U 23208B   26160.29450076  .00006873  00000+0  22042-3 0  9995
2 58661  97.4433 277.1826 0006728   4.4115 355.7185 15.32645541136212
TIANMU-1 21             
1 58662U 23208C   26160.29467088  .00008385  00000+0  24970-3 0  9999
2 58662  97.4492 279.8294 0006584 356.3678   3.7516 15.34936252136356
TIANMU-1 22             
1 58663U 23208D   26160.29504750  .00006363  00000+0  21537-3 0  9998
2 58663  97.4488 276.4986 0003964  30.9982 329.1492 15.30946798136120
TIANMU-1 15             
1 58700U 24004A   26160.30049303  .00004807  00000+0  18443-3 0  9998
2 58700  97.4674 346.4902 0007487  28.9254 331.2398 15.26941724134573
TIANMU-1 16             
1 58701U 24004B   26160.28830861  .00004786  00000+0  18520-3 0  9995
2 58701  97.4621 345.7238 0006604  33.7627 326.4031 15.26666866134579
TIANMU-1 17             
1 58702U 24004C   26160.27375854  .00004961  00000+0  19189-3 0  9998
2 58702  97.4648 346.1912 0006289  39.5712 320.5985 15.26666395134560
TIANMU-1 18             
1 58703U 24004D   26160.31701634  .00004818  00000+0  18501-3 0  9991
2 58703  97.4666 346.4850 0004763  39.0508 321.1074 15.26925418134579
INSAT-3DS               
1 58990U 24033A   26160.07293723 -.00000140  00000+0  00000+0 0  9995
2 58990   0.0151 152.7656 0001229 281.1643 291.8663  1.00272939 46986
METEOR-M2 4             
1 59051U 24039A   26160.30512260  .00000012  00000+0  24910-4 0  9994
2 59051  98.7007 119.7024 0006825 183.4593 176.6539 14.22428798118140
GOES 19                 
1 60133U 24119A   26160.18439957 -.00000232  00000+0  00000+0 0  9997
2 60133   0.0379 164.0820 0000457 345.7919  98.8894  1.00271953  6885
MTG-S1                  
1 64723U 25143A   26160.19853441 -.00000015  00000+0  00000+0 0  9992
2 64723   0.6105 337.0946 0001023  26.6360 321.8424  1.00271614  3332
METOP-SGA1              
1 65159U 25172A   26160.18496221  .00000033  00000+0  34760-4 0  9990
2 65159  98.6646 220.0586 0000931  88.3365 271.7919 14.21508488 42650
FENGYUN 3H              
1 65815U 25219A   26160.28976923  .00000052  00000+0  44860-4 0  9997
2 65815  98.6766 101.2125 0001637  82.9264 277.2099 14.19919123 36262
