OBJECT_NAME,OBJECT_ID,EPOCH,MEAN_MOTION,ECCENTRICITY,INCLINATION,RA_OF_ASC_NODE,ARG_OF_PERICENTER,MEAN_ANOMALY,EPHEMERIS_TYPE,CLASSIFICATION_TYPE,NORAD_CAT_ID,ELEMENT_SET_NO,REV_AT_EPOCH,BSTAR,MEAN_MOTION_DOT,MEAN_MOTION_DDOT
TIANMU-1 20,2023-208B,2026-06-09T07:04:04.865664,15.32645541,.00067281,97.4433,277.1826,4.4115,355.7185,0,U,58661,999,13621,.22041723E-3,.6873E-4,0
TIANMU-1 21,2023-208C,2026-06-09T07:04:19.564032,15.34936252,.00065845,97.4492,279.8294,356.3678,3.7516,0,U,58662,999,13635,.24970227E-3,.8385E-4,0
TIANMU-1 22,2023-208D,2026-06-09T07:04:52.104000,15.30946798,.00039643,97.4488,276.4986,30.9982,329.1492,0,U,58663,999,13612,.21537023E-3,.6363E-4,0
TIANMU-1 15,2024-004A,2026-06-09T07:12:42.597792,15.26941724,.00074875,97.4674,346.4902,28.9254,331.2398,0,U,58700,999,13457,.18443417E-3,.4807E-4,0
TIANMU-1 16,2024-004B,2026-06-09T06:55:09.863904,15.26666866,.0006604,97.4621,345.7238,33.7627,326.4031,0,U,58701,999,13457,.1851988E-3,.4786E-4,0
TIANMU-1 17,2024-004C,2026-06-09T06:34:12.737856,15.26666395,.00062893,97.4648,346.1912,39.5712,320.5985,0,U,58702,999,13456,.19188596E-3,.4961E-4,0
TIANMU-1 18,2024-004D,2026-06-09T07:36:30.211776,15.26925418,.00047631,97.4666,346.4850,39.0508,321.1074,0,U,58703,999,13457,.18501007E-3,.4818E-4,0
INSAT-3DS,2024-033A,2026-06-09T01:45:01.776672,1.00272939,.00012298,0.0151,152.7656,281.1643,291.8663,0,U,58990,999,4698,0,-.14E-5,0
METEOR-M2 4,2024-039A,2026-06-09T07:19:22.592640,14.22428798,.0006825,98.7007,119.7024,183.4593,176.6539,0,U,59051,999,11814,.24909639E-4,.12E-6,0
GOES 19,2024-119A,2026-06-09T04:25:32.122848,1.00271953,.00004574,0.0379,164.0820,345.7919,98.8894,0,U,60133,999,688,0,-.232E-5,0
MTG-S1,2025-143A,2026-06-09T04:45:53.373024,1.00271614,.00010231,0.6105,337.0946,26.6360,321.8424,0,U,64723,999,333,0,-.15E-6,0
METOP-SGA1,2025-172A,2026-06-09T04:26:20.734944,14.21508488,.00009312,98.6646,220.0586,88.3365,271.7919,0,U,65159,999,4265,.34760183E-4,.33E-6,0
FENGYUN 3H,2025-219A,2026-06-09T06:57:16.061472,14.19919123,.0001637,98.6766,101.2125,82.9264,277.2099,0,U,65815,999,3626,.44860235E-4,.52E-6,0
